SL-4 R/B                
1 55561U 23018B   23040.64087694  .03120782  12116-4  73138-3 0  9992
2 55561  51.6529 240.8487 0022098  71.7464  42.7267 16.28179710    61
